{
  "type": "FeatureCollection",
  "features": [
    {
      "type": "Feature",
      "properties": {
        "norad_id": 30546,
        "name": "FENGYUN 1C DEB",
        "group": "fengyun-1c-debris",
        "lat": -33.32220212871977,
        "lon": 13.998113954103372,
        "alt_km": 565.7620623543162,
        "timestamp": "2025-12-10T04:57:29.895507+00:00",
        "meta_object_name": "FENGYUN 1C DEB",
        "meta_object_id": "1999-025AKL",
        "meta_epoch": "2025-12-09T13:36:26.983008",
        "meta_mean_motion": 14.8707169,
        "meta_eccentricity": 0.0092528,
        "meta_inclination": 98.9083,
        "meta_ra_of_asc_node": 199.2,
        "meta_arg_of_pericenter": 172.5722,
        "meta_mean_anomaly": 218.242,
        "meta_ephemeris_type": 0,
        "meta_classification_type": "U",
        "meta_norad_cat_id": 30546,
        "meta_element_set_no": 999,
        "meta_rev_at_epoch": 410,
        "meta_bstar": 0.0012913,
        "meta_mean_motion_dot": 0.00012475,
        "meta_mean_motion_ddot": 0,
        "tle_line1": "1 30546U 99025AKL 25343.56697897  .00012475  00000+0  12913-2 0  9993",
        "tle_line2": "2 30546  98.9083 199.2000 0092528 172.5722 218.2420 14.87071690  4107"
      },
      "geometry": {
        "type": "Point",
        "coordinates": [
          13.998113954103372,
          -33.32220212871977
        ]
      }
    },
    {
      "type": "Feature",
      "properties": {
        "norad_id": 30547,
        "name": "FENGYUN 1C DEB",
        "group": "fengyun-1c-debris",
        "lat": 16.75056552465147,
        "lon": -175.59099491422432,
        "alt_km": 826.3873870807056,
        "timestamp": "2025-12-10T04:57:29.895517+00:00",
        "meta_object_name": "FENGYUN 1C DEB",
        "meta_object_id": "1999-025AKM",
        "meta_epoch": "2025-12-09T20:36:19.507104",
        "meta_mean_motion": 14.37743313,
        "meta_eccentricity": 0.0095087,
        "meta_inclination": 98.9024,
        "meta_ra_of_asc_node": 186.7526,
        "meta_arg_of_pericenter": 225.9925,
        "meta_mean_anomaly": 150.1949,
        "meta_ephemeris_type": 0,
        "meta_classification_type": "U",
        "meta_norad_cat_id": 30547,
        "meta_element_set_no": 999,
        "meta_rev_at_epoch": 98681,
        "meta_bstar": 0.00050091,
        "meta_mean_motion_dot": 1.539e-05,
        "meta_mean_motion_ddot": 0,
        "tle_line1": "1 30547U 99025AKM 25343.85855911  .00001539  00000+0  50091-3 0  9998",
        "tle_line2": "2 30547  98.9024 186.7526 0095087 225.9925 150.1949 14.37743313986818"
      },
      "geometry": {
        "type": "Point",
        "coordinates": [
          -175.59099491422432,
          16.75056552465147
        ]
      }
    },
    {
      "type": "Feature",
      "properties": {
        "norad_id": 30548,
        "name": "FENGYUN 1C DEB",
        "group": "fengyun-1c-debris",
        "lat": 10.972435001594063,
        "lon": -120.49544576369428,
        "alt_km": 760.2638719028118,
        "timestamp": "2025-12-10T04:57:29.895528+00:00",
        "meta_object_name": "FENGYUN 1C DEB",
        "meta_object_id": "1999-025AKN",
        "meta_epoch": "2025-12-09T12:38:45.253824",
        "meta_mean_motion": 14.26829651,
        "meta_eccentricity": 0.00688055,
        "meta_inclination": 99.6814,
        "meta_ra_of_asc_node": 240.65,
        "meta_arg_of_pericenter": 344.4297,
        "meta_mean_anomaly": 137.0943,
        "meta_ephemeris_type": 0,
        "meta_classification_type": "U",
        "meta_norad_cat_id": 30548,
        "meta_element_set_no": 999,
        "meta_rev_at_epoch": 14049,
        "meta_bstar": 0.0032327032,
        "meta_mean_motion_dot": 7.994e-05,
        "meta_mean_motion_ddot": 0,
        "tle_line1": "1 30548U 99025AKN 25343.52691266  .00007994  00000+0  32327-2 0  9996",
        "tle_line2": "2 30548  99.6814 240.6500 0068805 344.4297 137.0943 14.26829651140495"
      },
      "geometry": {
        "type": "Point",
        "coordinates": [
          -120.49544576369428,
          10.972435001594063
        ]
      }
    },
    {
      "type": "Feature",
      "properties": {
        "norad_id": 30549,
        "name": "FENGYUN 1C DEB",
        "group": "fengyun-1c-debris",
        "lat": 79.31103575603863,
        "lon": -22.95255928003157,
        "alt_km": 1095.6100616580516,
        "timestamp": "2025-12-10T04:57:29.895539+00:00",
        "meta_object_name": "FENGYUN 1C DEB",
        "meta_object_id": "1999-025AKP",
        "meta_epoch": "2025-12-03T07:39:14.923872",
        "meta_mean_motion": 13.98584639,
        "meta_eccentricity": 0.0288262,
        "meta_inclination": 98.4796,
        "meta_ra_of_asc_node": 98.4482,
        "meta_arg_of_pericenter": 283.4344,
        "meta_mean_anomaly": 73.4847,
        "meta_ephemeris_type": 0,
        "meta_classification_type": "U",
        "meta_norad_cat_id": 30549,
        "meta_element_set_no": 999,
        "meta_rev_at_epoch": 95162,
        "meta_bstar": 0.0024216,
        "meta_mean_motion_dot": 4.917e-05,
        "meta_mean_motion_ddot": 0,
        "tle_line1": "1 30549U 99025AKP 25337.31892273  .00004917  00000+0  24216-2 0  9998",
        "tle_line2": "2 30549  98.4796  98.4482 0288262 283.4344  73.4847 13.98584639951629"
      },
      "geometry": {
        "type": "Point",
        "coordinates": [
          -22.95255928003157,
          79.31103575603863
        ]
      }
    },
    {
      "type": "Feature",
      "properties": {
        "norad_id": 30550,
        "name": "FENGYUN 1C DEB",
        "group": "fengyun-1c-debris",
        "lat": -41.05210231450179,
        "lon": 51.5363950565813,
        "alt_km": 878.5432213180738,
        "timestamp": "2025-12-10T04:57:29.895549+00:00",
        "meta_object_name": "FENGYUN 1C DEB",
        "meta_object_id": "1999-025AKQ",
        "meta_epoch": "2025-12-09T11:38:59.399808",
        "meta_mean_motion": 14.02348674,
        "meta_eccentricity": 0.01331679,
        "meta_inclination": 99.0528,
        "meta_ra_of_asc_node": 238.8009,
        "meta_arg_of_pericenter": 306.2736,
        "meta_mean_anomaly": 237.9374,
        "meta_ephemeris_type": 0,
        "meta_classification_type": "U",
        "meta_norad_cat_id": 30550,
        "meta_element_set_no": 999,
        "meta_rev_at_epoch": 95349,
        "meta_bstar": 0.0044165795,
        "meta_mean_motion_dot": 7.287e-05,
        "meta_mean_motion_ddot": 0,
        "tle_line1": "1 30550U 99025AKQ 25343.48540972  .00007287  00000+0  44166-2 0  9990",
        "tle_line2": "2 30550  99.0528 238.8009 0133167 306.2736 237.9374 14.02348674953490"
      },
      "geometry": {
        "type": "Point",
        "coordinates": [
          51.5363950565813,
          -41.05210231450179
        ]
      }
    },
    {
      "type": "Feature",
      "properties": {
        "norad_id": 30552,
        "name": "FENGYUN 1C DEB",
        "group": "fengyun-1c-debris",
        "lat": 63.03238781748169,
        "lon": -46.46873112247101,
        "alt_km": 712.5436762163326,
        "timestamp": "2025-12-10T04:57:29.895559+00:00",
        "meta_object_name": "FENGYUN 1C DEB",
        "meta_object_id": "1999-025AKS",
        "meta_epoch": "2025-12-09T06:58:00.357024",
        "meta_mean_motion": 14.54619199,
        "meta_eccentricity": 0.00145,
        "meta_inclination": 98.8357,
        "meta_ra_of_asc_node": 114.763,
        "meta_arg_of_pericenter": 261.6134,
        "meta_mean_anomaly": 98.3418,
        "meta_ephemeris_type": 0,
        "meta_classification_type": "U",
        "meta_norad_cat_id": 30552,
        "meta_element_set_no": 999,
        "meta_rev_at_epoch": 97602,
        "meta_bstar": 0.0048141,
        "meta_mean_motion_dot": 0.00020602,
        "meta_mean_motion_ddot": 0,
        "tle_line1": "1 30552U 99025AKS 25343.29028191  .00020602  00000+0  48141-2 0  9998",
        "tle_line2": "2 30552  98.8357 114.7630 0014500 261.6134  98.3418 14.54619199976028"
      },
      "geometry": {
        "type": "Point",
        "coordinates": [
          -46.46873112247101,
          63.03238781748169
        ]
      }
    },
    {
      "type": "Feature",
      "properties": {
        "norad_id": 30553,
        "name": "FENGYUN 1C DEB",
        "group": "fengyun-1c-debris",
        "lat": 12.463629192077276,
        "lon": 76.75185554549125,
        "alt_km": 667.9348424211094,
        "timestamp": "2025-12-10T04:57:29.895569+00:00",
        "meta_object_name": "FENGYUN 1C DEB",
        "meta_object_id": "1999-025AKT",
        "meta_epoch": "2025-12-09T04:25:51.458304",
        "meta_mean_motion": 14.72029096,
        "meta_eccentricity": 0.00211637,
        "meta_inclination": 99.1288,
        "meta_ra_of_asc_node": 77.6427,
        "meta_arg_of_pericenter": 161.6474,
        "meta_mean_anomaly": 198.5498,
        "meta_ephemeris_type": 0,
        "meta_classification_type": "U",
        "meta_norad_cat_id": 30553,
        "meta_element_set_no": 999,
        "meta_rev_at_epoch": 98421,
        "meta_bstar": 0.0040962031,
        "meta_mean_motion_dot": 0.00025852,
        "meta_mean_motion_ddot": 0,
        "tle_line1": "1 30553U 99025AKT 25343.18462336  .00025852  00000+0  40962-2 0  9995",
        "tle_line2": "2 30553  99.1288  77.6427 0021163 161.6474 198.5498 14.72029096984218"
      },
      "geometry": {
        "type": "Point",
        "coordinates": [
          76.75185554549125,
          12.463629192077276
        ]
      }
    }
  ]
}